{
  "type": "FeatureCollection",
  "features": [
    {
      "type": "Feature",
      "properties": {
        "norad_id": 30059,
        "name": "FENGYUN 1C DEB",
        "group": "fengyun-1c-debris",
        "lat": -69.36663297845348,
        "lon": 7.920057729681367,
        "alt_km": 855.3179485702176,
        "timestamp": "2025-12-14T11:29:50.333885+00:00",
        "meta_object_name": "FENGYUN 1C DEB",
        "meta_object_id": "1999-025PL",
        "meta_epoch": "2025-12-13T13:14:19.364064",
        "meta_mean_motion": 13.45495239,
        "meta_eccentricity": 0.03266271,
        "meta_inclination": 98.8226,
        "meta_ra_of_asc_node": 342.7442,
        "meta_arg_of_pericenter": 300.6203,
        "meta_mean_anomaly": 178.7731,
        "meta_ephemeris_type": 0,
        "meta_classification_type": "U",
        "meta_norad_cat_id": 30059,
        "meta_element_set_no": 999,
        "meta_rev_at_epoch": 92808,
        "meta_bstar": 0.00053014523,
        "meta_mean_motion_dot": 3.94e-06,
        "meta_mean_motion_ddot": 0,
        "tle_line1": "1 30059U 99025PL  25347.55161301  .00000394  00000+0  53015-3 0  9997",
        "tle_line2": "2 30059  98.8226 342.7442 0326627 300.6203 178.7731 13.45495239928086"
      },
      "geometry": {
        "type": "Point",
        "coordinates": [
          7.920057729681367,
          -69.36663297845348
        ]
      }
    },
    {
      "type": "Feature",
      "properties": {
        "norad_id": 30060,
        "name": "FENGYUN 1C DEB",
        "group": "fengyun-1c-debris",
        "lat": 16.11943124989525,
        "lon": 37.765780988417156,
        "alt_km": 1115.153726501142,
        "timestamp": "2025-12-14T11:29:50.333895+00:00",
        "meta_object_name": "FENGYUN 1C DEB",
        "meta_object_id": "1999-025PM",
        "meta_epoch": "2025-12-13T15:24:39.339072",
        "meta_mean_motion": 13.43759984,
        "meta_eccentricity": 0.03448389,
        "meta_inclination": 99.3148,
        "meta_ra_of_asc_node": 214.2713,
        "meta_arg_of_pericenter": 69.3597,
        "meta_mean_anomaly": 3.6428,
        "meta_ephemeris_type": 0,
        "meta_classification_type": "U",
        "meta_norad_cat_id": 30060,
        "meta_element_set_no": 999,
        "meta_rev_at_epoch": 92255,
        "meta_bstar": 0.0027351746,
        "meta_mean_motion_dot": 2.214e-05,
        "meta_mean_motion_ddot": 0,
        "tle_line1": "1 30060U 99025PM  25347.64212198  .00002214  00000+0  27352-2 0  9997",
        "tle_line2": "2 30060  99.3148 214.2713 0344838  69.3597   3.6428 13.43759984922553"
      },
      "geometry": {
        "type": "Point",
        "coordinates": [
          37.765780988417156,
          16.11943124989525
        ]
      }
    },
    {
      "type": "Feature",
      "properties": {
        "norad_id": 30061,
        "name": "FENGYUN 1C DEB",
        "group": "fengyun-1c-debris",
        "lat": -21.57224833156492,
        "lon": -86.29159757075224,
        "alt_km": 887.2700501034114,
        "timestamp": "2025-12-14T11:29:50.333905+00:00",
        "meta_object_name": "FENGYUN 1C DEB",
        "meta_object_id": "1999-025PN",
        "meta_epoch": "2025-12-13T13:10:50.726208",
        "meta_mean_motion": 13.4645565,
        "meta_eccentricity": 0.03728794,
        "meta_inclination": 101.8745,
        "meta_ra_of_asc_node": 97.3784,
        "meta_arg_of_pericenter": 248.6931,
        "meta_mean_anomaly": 131.0718,
        "meta_ephemeris_type": 0,
        "meta_classification_type": "U",
        "meta_norad_cat_id": 30061,
        "meta_element_set_no": 999,
        "meta_rev_at_epoch": 92110,
        "meta_bstar": 0.0039666425,
        "meta_mean_motion_dot": 3.583e-05,
        "meta_mean_motion_ddot": 0,
        "tle_line1": "1 30061U 99025PN  25347.54919822  .00003583  00000+0  39666-2 0  9996",
        "tle_line2": "2 30061 101.8745  97.3784 0372879 248.6931 131.0718 13.46455650921108"
      },
      "geometry": {
        "type": "Point",
        "coordinates": [
          -86.29159757075224,
          -21.57224833156492
        ]
      }
    },
    {
      "type": "Feature",
      "properties": {
        "norad_id": 30062,
        "name": "FENGYUN 1C DEB",
        "group": "fengyun-1c-debris",
        "lat": 10.051072989590864,
        "lon": 179.18619895702963,
        "alt_km": 891.8536380264486,
        "timestamp": "2025-12-14T11:29:50.333915+00:00",
        "meta_object_name": "FENGYUN 1C DEB",
        "meta_object_id": "1999-025PP",
        "meta_epoch": "2025-12-13T14:44:28.413600",
        "meta_mean_motion": 14.07113888,
        "meta_eccentricity": 0.0049439,
        "meta_inclination": 98.7809,
        "meta_ra_of_asc_node": 356.7764,
        "meta_arg_of_pericenter": 45.8524,
        "meta_mean_anomaly": 64.9092,
        "meta_ephemeris_type": 0,
        "meta_classification_type": "U",
        "meta_norad_cat_id": 30062,
        "meta_element_set_no": 999,
        "meta_rev_at_epoch": 96920,
        "meta_bstar": 0.00061934728,
        "meta_mean_motion_dot": 1.005e-05,
        "meta_mean_motion_ddot": 0,
        "tle_line1": "1 30062U 99025PP  25347.61421775  .00001005  00000+0  61935-3 0  9992",
        "tle_line2": "2 30062  98.7809 356.7764 0049439  45.8524  64.9092 14.07113888969206"
      },
      "geometry": {
        "type": "Point",
        "coordinates": [
          179.18619895702963,
          10.051072989590864
        ]
      }
    },
    {
      "type": "Feature",
      "properties": {
        "norad_id": 30063,
        "name": "FENGYUN 1C DEB",
        "group": "fengyun-1c-debris",
        "lat": -54.43558568504845,
        "lon": 135.11274268973955,
        "alt_km": 853.7137110503672,
        "timestamp": "2025-12-14T11:29:50.333925+00:00",
        "meta_object_name": "FENGYUN 1C DEB",
        "meta_object_id": "1999-025PQ",
        "meta_epoch": "2025-12-13T12:52:42.955392",
        "meta_mean_motion": 14.15611962,
        "meta_eccentricity": 0.00330287,
        "meta_inclination": 98.5215,
        "meta_ra_of_asc_node": 326.3162,
        "meta_arg_of_pericenter": 131.9848,
        "meta_mean_anomaly": 342.7305,
        "meta_ephemeris_type": 0,
        "meta_classification_type": "U",
        "meta_norad_cat_id": 30063,
        "meta_element_set_no": 999,
        "meta_rev_at_epoch": 97676,
        "meta_bstar": 0.00011268322,
        "meta_mean_motion_dot": 1.8e-06,
        "meta_mean_motion_ddot": 0,
        "tle_line1": "1 30063U 99025PQ  25347.53660828  .00000180  00000+0  11268-3 0  9995",
        "tle_line2": "2 30063  98.5215 326.3162 0033028 131.9848 342.7305 14.15611962976762"
      },
      "geometry": {
        "type": "Point",
        "coordinates": [
          135.11274268973955,
          -54.43558568504845
        ]
      }
    },
    {
      "type": "Feature",
      "properties": {
        "norad_id": 30064,
        "name": "FENGYUN 1C DEB",
        "group": "fengyun-1c-debris",
        "lat": -9.20174586422986,
        "lon": 0.8928218912511621,
        "alt_km": 869.4131202607232,
        "timestamp": "2025-12-14T11:29:50.333935+00:00",
        "meta_object_name": "FENGYUN 1C DEB",
        "meta_object_id": "1999-025PR",
        "meta_epoch": "2025-12-13T14:01:50.823264",
        "meta_mean_motion": 14.14270221,
        "meta_eccentricity": 0.00666534,
        "meta_inclination": 98.6618,
        "meta_ra_of_asc_node": 358.6106,
        "meta_arg_of_pericenter": 109.0271,
        "meta_mean_anomaly": 11.1048,
        "meta_ephemeris_type": 0,
        "meta_classification_type": "U",
        "meta_norad_cat_id": 30064,
        "meta_element_set_no": 999,
        "meta_rev_at_epoch": 97517,
        "meta_bstar": 0.00023058882,
        "meta_mean_motion_dot": 4.08e-06,
        "meta_mean_motion_ddot": 0,
        "tle_line1": "1 30064U 99025PR  25347.58461601  .00000408  00000+0  23059-3 0  9993",
        "tle_line2": "2 30064  98.6618 358.6106 0066653 109.0271  11.1048 14.14270221975176"
      },
      "geometry": {
        "type": "Point",
        "coordinates": [
          0.8928218912511621,
          -9.20174586422986
        ]
      }
    },
    {
      "type": "Feature",
      "properties": {
        "norad_id": 30065,
        "name": "FENGYUN 1C DEB",
        "group": "fengyun-1c-debris",
        "lat": 41.51504726427152,
        "lon": 148.96000913557984,
        "alt_km": 969.3572449326612,
        "timestamp": "2025-12-14T11:29:50.333945+00:00",
        "meta_object_name": "FENGYUN 1C DEB",
        "meta_object_id": "1999-025PS",
        "meta_epoch": "2025-12-13T15:47:59.682624",
        "meta_mean_motion": 13.86916208,
        "meta_eccentricity": 0.01316378,
        "meta_inclination": 98.6842,
        "meta_ra_of_asc_node": 320.4223,
        "meta_arg_of_pericenter": 29.1198,
        "meta_mean_anomaly": 331.7219,
        "meta_ephemeris_type": 0,
        "meta_classification_type": "U",
        "meta_norad_cat_id": 30065,
        "meta_element_set_no": 999,
        "meta_rev_at_epoch": 95684,
        "meta_bstar": 0.00025336158,
        "meta_mean_motion_dot": 2.77e-06,
        "meta_mean_motion_ddot": 0,
        "tle_line1": "1 30065U 99025PS  25347.65832966  .00000277  00000+0  25336-3 0  9992",
        "tle_line2": "2 30065  98.6842 320.4223 0131637  29.1198 331.7219 13.86916208956842"
      },
      "geometry": {
        "type": "Point",
        "coordinates": [
          148.96000913557984,
          41.51504726427152
        ]
      }
    }
  ]
}